OBJECT_NAME,OBJECT_ID,EPOCH,MEAN_MOTION,ECCENTRICITY,INCLINATION,RA_OF_ASC_NODE,ARG_OF_PERICENTER,MEAN_ANOMALY,EPHEMERIS_TYPE,CLASSIFICATION_TYPE,NORAD_CAT_ID,ELEMENT_SET_NO,REV_AT_EPOCH,BSTAR,MEAN_MOTION_DOT,MEAN_MOTION_DDOT
STARLINK-37706,2026-110D,2026-06-14T14:00:01.999872,15.33439574,.00016068,97.2843,1.9869,81.3875,44.2417,0,U,69127,999,523,.17548963E-4,.491E-5,0
STARLINK-37723,2026-110E,2026-06-14T14:00:01.999872,15.33437665,.00014129,97.2844,1.9940,85.3672,55.2751,0,U,69128,999,523,-.7095725E-4,-.2365E-4,0
STARLINK-37720,2026-110F,2026-06-14T12:16:37.068096,15.49234569,.00019652,97.2838,1.7250,81.4592,278.6882,0,U,69129,999,518,.13295285E-2,.73011E-3,0
STARLINK-37533,2026-110G,2026-06-14T14:00:01.999872,15.33436798,.00013971,97.2842,2.0138,85.4850,100.1660,0,U,69130,999,523,-.24861821E-4,-.877E-5,0
STARLINK-37530,2026-110H,2026-06-14T14:00:01.999872,15.33432931,.00020245,97.2841,2.0210,81.6481,118.9984,0,U,69131,999,523,.59681865E-4,.1851E-4,0
STARLINK-37660,2026-110J,2026-06-14T12:02:35.945088,15.49127973,.00009604,97.2831,1.8913,191.1386,168.9844,0,U,69132,999,519,.83254493E-3,.45353E-3,0
STARLINK-37633,2026-110K,2026-06-14T11:54:34.047360,15.49208194,.0001286,97.2828,1.8987,105.8681,254.2713,0,U,69133,999,519,.71708917E-3,.3913E-3,0
STARLINK-37361,2026-110L,2026-06-14T14:00:01.999872,15.33421399,.00020845,97.2840,2.0406,86.6560,158.9972,0,U,69134,999,523,.32419876E-4,.971E-5,0
STARLINK-37372,2026-110M,2026-06-14T14:55:38.125056,15.49209614,.00012857,97.2832,2.0354,88.1515,271.9883,0,U,69135,999,521,.40042566E-3,.21763E-3,0
STARLINK-37531,2026-110N,2026-06-14T14:00:01.999872,15.38888092,.00020772,97.2847,2.0578,89.4541,176.3922,0,U,69136,999,523,-.69684319E-1,-.2382436E-1,0
STARLINK-37662,2026-110P,2026-06-14T13:22:08.554944,15.49199214,.00014565,97.2830,1.9706,84.3886,275.7532,0,U,69137,999,520,.18768513E-3,.10134E-3,0
STARLINK-37658,2026-110Q,2026-06-14T12:34:46.690464,15.49207730,.00011543,97.2829,1.8619,91.8620,268.2763,0,U,69138,999,519,.73887094E-3,.40327E-3,0
STARLINK-37659,2026-110R,2026-06-14T12:45:51.502176,15.49203298,.00013973,97.2838,1.8521,100.8430,259.2979,0,U,69139,999,519,.87725632E-3,.47936E-3,0
STARLINK-37653,2026-110S,2026-06-14T12:49:24.580992,15.49198580,.00011689,97.2837,1.8489,99.3499,260.7884,0,U,69140,999,519,.64384744E-3,.35094E-3,0
STARLINK-37654,2026-110T,2026-06-14T11:46:42.466656,15.49191290,.00016013,97.2829,1.9078,89.5800,270.5635,0,U,69141,999,519,.87222282E-3,.47639E-3,0
STARLINK-37655,2026-110U,2026-06-14T14:00:01.999872,15.46115074,.00020465,97.2842,2.0486,109.7038,154.7999,0,U,69142,999,523,-.57466525E-1,-.2492262E-1,0
STARLINK-37636,2026-110V,2026-06-14T14:00:01.999872,15.38015416,.00015966,97.2841,2.0998,71.5760,305.9791,0,U,69143,999,523,-.16802995E+0,-.5313747E-1,0
STARLINK-37638,2026-110W,2026-06-14T14:00:01.999872,15.36781082,.00019514,97.2833,2.1085,54.2431,338.3363,0,U,69144,999,523,-.92595999E-1,-.2937553E-1,0
STARLINK-37657,2026-110X,2026-06-14T11:47:00.480192,15.49235094,.00018541,97.2829,1.9070,95.7176,264.4287,0,U,69145,999,519,.90409012E-3,.49471E-3,0
STARLINK-37639,2026-110Y,2026-06-14T14:00:01.999872,15.37728586,.0001989,97.2848,2.1217,74.0496,346.2410,0,U,69146,999,529,-.89928503E-1,-.2941738E-1,0
STARLINK-37661,2026-110Z,2026-06-14T12:17:52.279296,15.49219791,.00017527,97.2835,1.8780,98.9812,261.1638,0,U,69147,999,519,.12621181E-2,.69234E-3,0
STARLINK-37395,2026-111A,2026-06-14T14:00:01.999872,15.67343799,.00010856,53.1585,164.8567,62.6765,43.9152,0,U,69148,999,513,-.25187843E-1,-.2428408E-1,0
STARLINK-37346,2026-111B,2026-06-14T14:00:01.999872,15.51860411,.00010039,53.1592,165.2718,74.1509,187.9157,0,U,69149,999,513,-.49384679E-1,-.2648241E-1,0
STARLINK-37332,2026-111C,2026-06-14T14:00:01.999872,15.49298293,.00012316,53.1582,165.5937,82.1938,21.0574,0,U,69150,999,513,.26478456E-3,.14299E-3,0
STARLINK-37297,2026-111D,2026-06-14T14:00:01.999872,15.69071950,.0001306,53.1590,164.8017,73.3178,60.2378,0,U,69151,999,513,-.24978228E-1,-.2566126E-1,0
STARLINK-37317,2026-111E,2026-06-14T14:00:01.999872,15.73452045,.00011616,53.1589,164.7097,85.0531,93.4017,0,U,69152,999,513,-.2024238E-1,-.2513828E-1,0
STARLINK-37374,2026-111F,2026-06-14T14:00:01.999872,15.49306864,.00010925,53.1588,165.7702,100.1537,275.4780,0,U,69153,999,513,.26271598E-3,.14188E-3,0
STARLINK-37235,2026-111G,2026-06-14T14:00:01.999872,15.49301044,.00011004,53.1585,166.0128,82.8610,173.3807,0,U,69154,999,513,.18512558E-3,.9858E-4,0
STARLINK-37329,2026-111H,2026-06-14T14:00:01.999872,15.73496866,.0001218,53.1585,164.7136,83.8634,92.8652,0,U,69155,999,513,-.20897868E-1,-.2588935E-1,0
STARLINK-37345,2026-111J,2026-06-14T14:00:01.999872,15.75146413,.00011921,53.1592,164.6826,85.8492,106.1423,0,U,69156,999,513,-.19497961E-1,-.2595568E-1,0
