STARLINK-37706          
1 69127U 26110D   26165.58335648  .00000491  00000+0  17549-4 0  9990
2 69127  97.2843   1.9869 0001606  81.3875  44.2417 15.33439574  5234
STARLINK-37723          
1 69128U 26110E   26165.58335648 -.00002365  00000+0 -70957-4 0  9997
2 69128  97.2844   1.9940 0001412  85.3672  55.2751 15.33437665  5232
STARLINK-37720          
1 69129U 26110F   26165.51154014  .00073011  00000+0  13295-2 0  9991
2 69129  97.2838   1.7250 0001965  81.4592 278.6882 15.49234569  5184
STARLINK-37533          
1 69130U 26110G   26165.58335648 -.00000877  00000+0 -24862-4 0  9990
2 69130  97.2842   2.0138 0001397  85.4850 100.1660 15.33436798  5230
STARLINK-37530          
1 69131U 26110H   26165.58335648  .00001851  00000+0  59682-4 0  9990
2 69131  97.2841   2.0210 0002024  81.6481 118.9984 15.33432931  5238
STARLINK-37660          
1 69132U 26110J   26165.50180492  .00045353  00000+0  83254-3 0  9994
2 69132  97.2831   1.8913 0000960 191.1386 168.9844 15.49127973  5192
STARLINK-37633          
1 69133U 26110K   26165.49622740  .00039130  00000+0  71709-3 0  9998
2 69133  97.2828   1.8987 0001286 105.8681 254.2713 15.49208194  5191
STARLINK-37361          
1 69134U 26110L   26165.58335648  .00000971  00000+0  32420-4 0  9996
2 69134  97.2840   2.0406 0002084  86.6560 158.9972 15.33421399  5233
STARLINK-37372          
1 69135U 26110M   26165.62196904  .00021763  00000+0  40043-3 0  9993
2 69135  97.2832   2.0354 0001285  88.1515 271.9883 15.49209614  5212
STARLINK-37531          
1 69136U 26110N   26165.58335648 -.02382436  00000+0 -69684-1 0  9990
2 69136  97.2847   2.0578 0002077  89.4541 176.3922 15.38888092  5235
STARLINK-37662          
1 69137U 26110P   26165.55704346  .00010134  00000+0  18769-3 0  9992
2 69137  97.2830   1.9706 0001456  84.3886 275.7532 15.49199214  5206
STARLINK-37658          
1 69138U 26110Q   26165.52415151  .00040327  00000+0  73887-3 0  9992
2 69138  97.2829   1.8619 0001154  91.8620 268.2763 15.49207730  5195
STARLINK-37659          
1 69139U 26110R   26165.53184609  .00047936  00000+0  87726-3 0  9995
2 69139  97.2838   1.8521 0001397 100.8430 259.2979 15.49203298  5191
STARLINK-37653          
1 69140U 26110S   26165.53431228  .00035094  00000+0  64385-3 0  9997
2 69140  97.2837   1.8489 0001168  99.3499 260.7884 15.49198580  5197
STARLINK-37654          
1 69141U 26110T   26165.49076929  .00047639  00000+0  87222-3 0  9999
2 69141  97.2829   1.9078 0001601  89.5800 270.5635 15.49191290  5197
STARLINK-37655          
1 69142U 26110U   26165.58335648 -.02492262  00000+0 -57467-1 0  9992
2 69142  97.2842   2.0486 0002046 109.7038 154.7999 15.46115074  5234
STARLINK-37636          
1 69143U 26110V   26165.58335648 -.05313747  00000+0 -16803+0 0  9993
2 69143  97.2841   2.0998 0001596  71.5760 305.9791 15.38015416  5239
STARLINK-37638          
1 69144U 26110W   26165.58335648 -.02937553  00000+0 -92596-1 0  9993
2 69144  97.2833   2.1085 0001951  54.2431 338.3363 15.36781082  5239
STARLINK-37657          
1 69145U 26110X   26165.49097778  .00049471  00000+0  90409-3 0  9995
2 69145  97.2829   1.9070 0001854  95.7176 264.4287 15.49235094  5194
STARLINK-37639          
1 69146U 26110Y   26165.58335648 -.02941738  00000+0 -89929-1 0  9991
2 69146  97.2848   2.1217 0001989  74.0496 346.2410 15.37728586  5294
STARLINK-37661          
1 69147U 26110Z   26165.51241064  .00069234  00000+0  12621-2 0  9997
2 69147  97.2835   1.8780 0001752  98.9812 261.1638 15.49219791  5199
STARLINK-37395          
1 69148U 26111A   26165.58335648 -.02428408  00000+0 -25188-1 0  9995
2 69148  53.1585 164.8567 0001085  62.6765  43.9152 15.67343799  5137
STARLINK-37346          
1 69149U 26111B   26165.58335648 -.02648241  00000+0 -49385-1 0  9990
2 69149  53.1592 165.2718 0001003  74.1509 187.9157 15.51860411  5135
STARLINK-37332          
1 69150U 26111C   26165.58335648  .00014299  00000+0  26478-3 0  9998
2 69150  53.1582 165.5937 0001231  82.1938  21.0574 15.49298293  5131
STARLINK-37297          
1 69151U 26111D   26165.58335648 -.02566126  00000+0 -24978-1 0  9995
2 69151  53.1590 164.8017 0001306  73.3178  60.2378 15.69071950  5131
STARLINK-37317          
1 69152U 26111E   26165.58335648 -.02513828  00000+0 -20242-1 0  9997
2 69152  53.1589 164.7097 0001161  85.0531  93.4017 15.73452045  5130
STARLINK-37374          
1 69153U 26111F   26165.58335648  .00014188  00000+0  26272-3 0  9990
2 69153  53.1588 165.7702 0001092 100.1537 275.4780 15.49306864  5131
STARLINK-37235          
1 69154U 26111G   26165.58335648  .00009858  00000+0  18513-3 0  9998
2 69154  53.1585 166.0128 0001100  82.8610 173.3807 15.49301044  5134
STARLINK-37329          
1 69155U 26111H   26165.58335648 -.02588935  00000+0 -20898-1 0  9998
2 69155  53.1585 164.7136 0001218  83.8634  92.8652 15.73496866  5133
STARLINK-37345          
1 69156U 26111J   26165.58335648 -.02595568  00000+0 -19498-1 0  9993
2 69156  53.1592 164.6826 0001192  85.8492 106.1423 15.75146413  5139
